     2.100          NAVIGATION                              RINEX VERSION / TYPE
fic2rin                                 09/30/2009 01:19:38 PGM / RUN BY / DATE
                                                            END OF HEADER
16 09  9 29 14  0  0.0  .773929059505D-05 -.397903932026D-11  .000000000000D+00
     .280000000000D+02 -.745937500000D+02  .461840666089D-08  .162216668345D+01
    -.366941094398D-05  .527713412885D-02  .520609319210D-05  .515362840652D+04
     .223200000000D+06  .856816768646D-07  .156038926509D+01  .931322574615D-08
     .969224907513D+00  .281250000000D+03 -.272784694692D+00 -.818498379457D-08
    -.289654922433D-09  .100000000000D+01  .155100000000D+04  .000000000000D+00
     .240000000000D+01  .000000000000D+00 -.977888703346D-08  .280000000000D+02
     .216006000000D+06  .400000000000D+01
17 09  9 29 14  0  0.0  .888970680535D-04  .318323145621D-11  .000000000000D+00
     .380000000000D+02 -.227812500000D+02  .446840041253D-08  .486944666286D+00
    -.116229057312D-05  .468666409142D-02  .108703970909D-04  .515374447441D+04
     .223200000000D+06  .111758708954D-07  .260325808753D+01  .987201929092D-07
     .960161569715D+00  .169343750000D+03 -.264627488059D+01 -.799997608826D-08
     .178578867098D-11  .100000000000D+01  .155100000000D+04  .000000000000D+00
     .240000000000D+01  .000000000000D+00 -.102445483208D-07  .380000000000D+02
     .216006000000D+06  .400000000000D+01
18 09  9 29 14  0  0.0  .164215452969D-04  .284217094304D-11  .000000000000D+00
     .310000000000D+02 -.254687500000D+02  .505306762341D-08  .182246039041D+01
    -.132992863655D-05  .109306421364D-01  .678375363350D-05  .515362889671D+04
     .223200000000D+06 -.242143869400D-06 -.157759917236D+01 -.726431608200D-07
     .940244374552D+00  .238218750000D+03 -.237241084055D+01 -.841463621766D-08
    -.397516558160D-09  .100000000000D+01  .155100000000D+04  .000000000000D+00
     .240000000000D+01  .000000000000D+00 -.107102096081D-07  .310000000000D+02
     .216006000000D+06  .400000000000D+01
19 09  9 29 14  0  0.0  .862497836351D-05 -.170530256582D-11  .000000000000D+00
     .980000000000D+02 -.220937500000D+02  .446375736198D-08 -.173630199252D+00
    -.126846134663D-05  .584448082373D-02  .105500221252D-04  .515366100502D+04
     .223200000000D+06  .856816768646D-07  .265893748694D+01 -.596046447754D-07
     .957883471257D+00  .177281250000D+03 -.242823086442D+00 -.799390440678D-08
    -.714315468392D-11  .100000000000D+01  .155100000000D+04  .000000000000D+00
     .240000000000D+01  .000000000000D+00 -.149011611938D-07  .980000000000D+02
     .216006000000D+06  .400000000000D+01
21 09  9 29 14  0  0.0 -.120839104056D-04 -.227373675443D-11  .000000000000D+00
     .760000000000D+02  .419375000000D+02  .518343019639D-08  .304949712994D+01
     .197626650333D-05  .155726855155D-01  .648014247417D-05  .515374831581D+04
     .223200000000D+06 -.100582838058D-06 -.263592027181D+01 -.176951289177D-06
     .933735116170D+00  .238500000000D+03 -.255633167663D+01 -.816462580372D-08
     .225009372544D-09  .100000000000D+01  .155100000000D+04  .000000000000D+00
     .240000000000D+01  .000000000000D+00 -.121071934700D-07  .760000000000D+02
     .216006000000D+06  .400000000000D+01
22 09  9 29 14  0  0.0  .189843587577D-03 -.102318153949D-11  .000000000000D+00
     .910000000000D+02 -.242187500000D+02  .515057168484D-08  .797797473753D+00
    -.124983489513D-05  .534809404053D-02  .661239027977D-05  .515365740776D+04
     .223200000000D+06 -.102445483208D-06 -.157217197888D+01 -.875443220139D-07
     .937917032809D+00  .240500000000D+03 -.188504938451D+01 -.846178103857D-08
    -.397873715894D-09  .100000000000D+01  .155100000000D+04  .000000000000D+00
     .485000000000D+01  .000000000000D+00 -.176951289177D-07  .910000000000D+02
     .216006000000D+06  .400000000000D+01
23 09  9 29 14  0  0.0  .388078391552D-03 -.454747350886D-12  .000000000000D+00
     .280000000000D+02  .332187500000D+02  .408767026787D-08 -.673685369128D+00
     .161863863468D-05  .639988842886D-02  .940635800362D-05  .515377152252D+04
     .223200000000D+06  .745058059692D-07 -.550852551254D+00 -.100582838058D-06
     .969857663470D+00  .200062500000D+03  .297798923634D+01 -.787532803902D-08
     .532165023952D-10  .100000000000D+01  .155100000000D+04  .000000000000D+00
     .240000000000D+01  .000000000000D+00 -.200234353542D-07  .280000000000D+02
     .216006000000D+06  .400000000000D+01
25 09  9 29 14  0  0.0  .612822826952D-03  .142108547152D-10  .000000000000D+00
     .110000000000D+02  .512187500000D+02  .439804033889D-08  .226015945982D+01
     .256858766079D-05  .112336050952D-01  .505149364471D-05  .515364306450D+04
     .223200000000D+06  .175088644028D-06  .396099258804D+00 -.186264514923D-08
     .971233276062D+00  .287625000000D+03 -.121366075727D+01 -.794997400547D-08
     .226795161215D-09  .100000000000D+01  .155100000000D+04  .000000000000D+00
     .240000000000D+01  .000000000000D+00 -.745058059692D-08  .110000000000D+02
     .216006000000D+06  .400000000000D+01
26 09  9 29 14  0  0.0  .971416011453D-05 -.113686837722D-11  .000000000000D+00
     .800000000000D+01  .472812500000D+02  .352050378597D-08 -.284359923105D+01
     .212527811527D-05  .196717795916D-01  .106226652861D-04  .515361561966D+04
     .223200000000D+06  .229105353355D-06 -.498502611492D+00 -.244006514549D-06
     .992341307021D+00  .187218750000D+03  .103009832734D+01 -.729173230135D-08
     .141791620476D-09  .100000000000D+01  .155100000000D+04  .000000000000D+00
     .340000000000D+01  .000000000000D+00 -.605359673500D-08  .264000000000D+03
     .216006000000D+06  .400000000000D+01
27 09  9 29 14  0  0.0  .868951901793D-04  .329691829393D-11  .000000000000D+00
     .143000000000D+03  .510625000000D+02  .452090259945D-08  .848013892325D-01
     .260211527348D-05  .213762172498D-01  .541470944881D-05  .515373058319D+04
     .223200000000D+06 -.363215804100D-06  .432897804457D+00 -.968575477600D-07
     .975987625231D+00  .288593750000D+03 -.154066341962D+01 -.854607026384D-08
     .320727645308D-09  .100000000000D+01  .155100000000D+04  .000000000000D+00
     .240000000000D+01  .000000000000D+00 -.419095158577D-08  .143000000000D+03
     .216006000000D+06  .400000000000D+01
28 09  9 29 14  0  0.0 -.260737724602D-04  .113686837722D-12  .000000000000D+00
     .100000000000D+03 -.727812500000D+02  .473662587091D-08  .104508745328D+01
    -.378303229809D-05  .151309728390D-01  .616163015366D-05  .515365485573D+04
     .223200000000D+06 -.242143869400D-06  .156842447138D+01  .139698386192D-06
     .967437310859D+00  .270187500000D+03 -.201698523062D+01 -.849071081504D-08
    -.301441127661D-09  .100000000000D+01  .155100000000D+04  .000000000000D+00
     .485000000000D+01  .000000000000D+00 -.102445483208D-07  .100000000000D+03
     .216006000000D+06  .400000000000D+01
29 09  9 29 14  0  0.0  .617410987616D-04  .329691829393D-11  .000000000000D+00
     .580000000000D+02 -.288125000000D+02  .433589489314D-08  .309160468577D+01
    -.147148966789D-05  .304726569448D-02  .111442059278D-04  .515360842133D+04
     .223200000000D+06  .689178705215D-07  .261146311520D+01  .633299350739D-07
     .960430632534D+00  .162812500000D+03 -.127473782846D+01 -.780353933445D-08
     .414302971667D-10  .100000000000D+01  .155100000000D+04  .000000000000D+00
     .240000000000D+01  .000000000000D+00 -.884756445885D-08  .580000000000D+02
     .216006000000D+06  .400000000000D+01
30 09  9 29 14  0  0.0  .180838629603D-03  .306954461848D-11  .000000000000D+00
     .380000000000D+02 -.812500000000D+02  .494020577940D-08  .152435024310D+01
    -.446289777756D-05  .119290116709D-01  .473670661449D-05  .515366942024D+04
     .223200000000D+06 -.838190317154D-07  .149346797076D+01 -.271946191788D-06
     .952987770554D+00  .285406250000D+03  .145880770371D+01 -.841820779500D-08
    -.195365280605D-09  .100000000000D+01  .155100000000D+04  .000000000000D+00
     .240000000000D+01  .000000000000D+00 -.791624188423D-08  .380000000000D+02
     .216006000000D+06  .400000000000D+01
31 09  9 29 14  0  0.0 -.637089833617D-04  .568434188608D-12  .000000000000D+00
     .350000000000D+02  .503750000000D+02  .445089968355D-08 -.246907297562D+01
     .279396772385D-05  .706606835593D-02  .463053584099D-05  .515379486084D+04
     .223200000000D+06  .130385160446D-07  .488801106402D+00  .132247805595D-06
     .974375994214D+00  .295687500000D+03 -.114077049532D+01 -.801390523989D-08
     .352871841386D-09  .100000000000D+01  .155100000000D+04  .000000000000D+00
     .240000000000D+01  .000000000000D+00 -.130385160446D-07  .350000000000D+02
     .216006000000D+06  .400000000000D+01
32 09  9 29 14  0  0.0  .187455210835D-03 -.727595761418D-11  .000000000000D+00
     .490000000000D+02 -.116562500000D+02  .448197240643D-08 -.154627487932D+01
    -.402331352234D-06  .132712736959D-01  .735558569431D-05  .515370526123D+04
     .223200000000D+06 -.271946191788D-06 -.151925061162D+01  .197440385818D-06
     .961958697281D+00  .241781250000D+03 -.111125383799D+01 -.817498337801D-08
    -.251081887140D-09  .100000000000D+01  .155100000000D+04  .000000000000D+00
     .240000000000D+01  .000000000000D+00 -.325962901115D-08  .490000000000D+02
     .216006000000D+06  .400000000000D+01
24 09  9 29 15  0  0.0  .224460382015D-03  .306954461848D-11  .000000000000D+00
     .181000000000D+03  .422812500000D+02  .486734560162D-08  .223541195640D+01
     .245682895184D-05  .642669363879D-02  .655464828014D-05  .515366318512D+04
     .226800000000D+06 -.558793544769D-07 -.260169211565D+01  .726431608200D-07
     .950337681288D+00  .248843750000D+03 -.615499376625D+00 -.811998108695D-08
     .110004582132D-09  .100000000000D+01  .155100000000D+04  .000000000000D+00
     .960000000000D+02  .630000000000D+02 -.139698386192D-08  .181000000000D+03
     .216006000000D+06  .600000000000D+01
